STARLINK-1482           
1 45773U 20038AV  26165.09326512  .00049284  00000+0  12837-2 0  9996
2 45773  53.1561 100.4750 0004671  53.3807 306.7626 15.38407257331649
STARLINK-1496           
1 45780U 20038BC  26164.98666330  .00061930  00000+0  51808-3 0  9990
2 45780  53.0467  70.7967 0000568 181.4075 178.6940 15.69431813332017
STARLINK-1513           
1 45786U 20038BJ  26165.10134978 -.00001460  00000+0 -35306-4 0  9999
2 45786  53.1605 102.6846 0001383  85.1691 274.9469 15.31678635331614
STARLINK-1522           
1 46027U 20055A   26164.97016044  .00025546  00000+0  14256-2 0  9992
2 46027  53.0647  51.0789 0002902  69.5968 290.5336 15.13410367323447
STARLINK-1523           
1 46028U 20055B   26164.92422367  .00041149  00000+0  13703-2 0  9990
2 46028  53.1623  39.6797 0000776 120.6915 239.4162 15.30748724323632
STARLINK-1526           
1 46029U 20055C   26164.92055019  .00005698  00000+0  20439-3 0  9991
2 46029  53.1640  39.7303 0001832  96.2666 263.8544 15.30193186323621
STARLINK-1555           
1 46032U 20055F   26164.97005638 -.00002090  00000+0 -58429-4 0  9998
2 46032  53.1619  39.4807 0001774 115.9996 244.1188 15.30206207323633
STARLINK-1556           
1 46033U 20055G   26164.95321032 -.00006502  00000+0 -20769-3 0  9993
2 46033  53.1579  39.5808 0001368 129.2640 230.8482 15.30186388323607
STARLINK-1557           
1 46034U 20055H   26164.89104929  .00017847  00000+0  61269-3 0  9993
2 46034  53.1579  39.8669 0001408 124.0185 236.0950 15.30228681323597
STARLINK-1558           
1 46035U 20055J   26164.96375087 -.00000594  00000+0 -79541-5 0  9994
2 46035  53.1593  39.5261 0001184 102.6694 257.4439 15.30181387323632
STARLINK-1560           
1 46036U 20055K   26164.95006495 -.00000342  00000+0  58330-6 0  9992
2 46036  53.1596  39.5996 0001125 107.5763 252.5361 15.30185362323634
STARLINK-1569           
1 46039U 20055N   26164.96690558 -.00001947  00000+0 -53655-4 0  9991
2 46039  53.1619  39.5073 0001224  93.5019 266.6122 15.30182037323623
STARLINK-1582           
1 46043U 20055S   26164.91284939  .00000575  00000+0  30320-4 0  9991
2 46043  53.1635  39.0907 0002000 123.6490 236.4702 15.31692274323627
STARLINK-1591           
1 46045U 20055U   26164.93424903  .00001544  00000+0  64241-4 0  9998
2 46045  53.1595  39.6591 0000883  98.0388 262.0713 15.30190691323607
STARLINK-1524           
1 46047U 20055W   26164.88216884 -.00002773  00000+0 -77644-4 0  9999
2 46047  53.1623  26.5356 0001250  99.3562 260.7581 15.31689934323806
STARLINK-1527           
1 46048U 20055X   26164.87752079 -.00002221  00000+0 -59849-4 0  9995
2 46048  53.1608  26.5396 0001028  74.6251 285.4864 15.31685809323779
STARLINK-1540           
1 46051U 20055AA  26164.92880884  .00001594  00000+0  63123-4 0  9991
2 46051  53.1595  26.5098 0001261  88.6940 271.4206 15.31700281323829
STARLINK-1541           
1 46052U 20055AB  26165.25002315  .00198393  00000+0  74739-3 0  9992
2 46052  53.1566   6.3519 0005666 266.7256 104.0222 15.86697765  6003
STARLINK-1543           
1 46053U 20055AC  26164.90081750  .00003685  00000+0  13043-3 0  9994
2 46053  53.1601  26.4442 0001653  75.1972 284.9213 15.31706386323810
STARLINK-1548           
1 46054U 20055AD  26164.91481030  .00001005  00000+0  44139-4 0  9996
2 46054  53.1590  26.4527 0000880  67.2084 292.9010 15.31698794323816
STARLINK-1554           
1 46055U 20055AE  26164.89615277 -.00005612  00000+0 -16922-3 0  9994
2 46055  53.1602  26.4875 0001175  86.7422 273.3714 15.31698397323810
STARLINK-1564           
1 46058U 20055AH  26164.89162092 -.00000045  00000+0  10616-4 0  9998
2 46058  53.1631  27.5237 0001435  96.3482 263.7682 15.30185681323791
STARLINK-1570           
1 46059U 20055AJ  26164.92411551 -.00001836  00000+0 -47416-4 0  9998
2 46059  53.1618  26.2378 0001145 124.5697 235.5412 15.31693171323774
STARLINK-1572           
1 46060U 20055AK  26164.93794194 -.00000084  00000+0  92883-5 0  9990
2 46060  53.1625  27.0457 0001627 112.3535 247.7639 15.30170604323778
STARLINK-1573           
1 46061U 20055AL  26164.84488099 -.00000695  00000+0 -10646-4 0  9990
2 46061  53.1607  26.5710 0000742  87.6187 272.4899 15.31688713323802
STARLINK-1577           
1 46063U 20055AN  26164.93809170 -.00001936  00000+0 -50642-4 0  9998
2 46063  53.1613  26.1373 0001374  78.0356 282.0800 15.31686274323816
STARLINK-1583           
1 46064U 20055AP  26164.88688624  .00001922  00000+0  73676-4 0  9997
2 46064  53.1615  26.8759 0001152  87.1459 272.9675 15.31702802323794
STARLINK-1536           
1 46070U 20055AV  26164.82291637  .00006866  00000+0  23269-3 0  9996
2 46070  53.1586  14.5628 0001425 136.7109 223.4004 15.31717670323968
STARLINK-1542           
1 46073U 20055AY  26164.91254720 -.00001089  00000+0 -23328-4 0  9992
2 46073  53.1601  17.1119 0001101  86.4313 273.6815 15.31695592323923
STARLINK-1549           
1 46074U 20055AZ  26164.88042309  .00035461  00000+0  12173-2 0  9990
2 46074  53.0496  14.4406 0002489 143.0272 217.0899 15.29830471323948
