OBJECT_NAME,OBJECT_ID,EPOCH,MEAN_MOTION,ECCENTRICITY,INCLINATION,RA_OF_ASC_NODE,ARG_OF_PERICENTER,MEAN_ANOMALY,EPHEMERIS_TYPE,CLASSIFICATION_TYPE,NORAD_CAT_ID,ELEMENT_SET_NO,REV_AT_EPOCH,BSTAR,MEAN_MOTION_DOT,MEAN_MOTION_DDOT
STARLINK-1482,2020-038AV,2026-06-14T02:14:18.106368,15.38407257,.0004671,53.1561,100.4750,53.3807,306.7626,0,U,45773,999,33164,.12837E-2,.49284E-3,0
STARLINK-1496,2020-038BC,2026-06-13T23:40:47.709120,15.69431813,.0000568,53.0467,70.7967,181.4075,178.6940,0,U,45780,999,33201,.51808E-3,.6193E-3,0
STARLINK-1513,2020-038BJ,2026-06-14T02:25:56.620992,15.31678635,.0001383,53.1605,102.6846,85.1691,274.9469,0,U,45786,999,33161,-.35306E-4,-.146E-4,0
STARLINK-1522,2020-055A,2026-06-13T23:17:01.862016,15.13410367,.0002902,53.0647,51.0789,69.5968,290.5336,0,U,46027,999,32344,.14256E-2,.25546E-3,0
STARLINK-1523,2020-055B,2026-06-13T22:10:52.925088,15.30748724,.0000776,53.1623,39.6797,120.6915,239.4162,0,U,46028,999,32363,.13703E-2,.41149E-3,0
STARLINK-1526,2020-055C,2026-06-13T22:05:35.536416,15.30193186,.0001832,53.1640,39.7303,96.2666,263.8544,0,U,46029,999,32362,.20439E-3,.5698E-4,0
STARLINK-1555,2020-055F,2026-06-13T23:16:52.871232,15.30206207,.0001774,53.1619,39.4807,115.9996,244.1188,0,U,46032,999,32363,-.58429E-4,-.209E-4,0
STARLINK-1556,2020-055G,2026-06-13T22:52:37.371648,15.30186388,.0001368,53.1579,39.5808,129.2640,230.8482,0,U,46033,999,32360,-.20769E-3,-.6502E-4,0
STARLINK-1557,2020-055H,2026-06-13T21:23:06.658656,15.30228681,.0001408,53.1579,39.8669,124.0185,236.0950,0,U,46034,999,32359,.61269E-3,.17847E-3,0
STARLINK-1558,2020-055J,2026-06-13T23:07:48.075168,15.30181387,.0001184,53.1593,39.5261,102.6694,257.4439,0,U,46035,999,32363,-.79541E-5,-.594E-5,0
STARLINK-1560,2020-055K,2026-06-13T22:48:05.611680,15.30185362,.0001125,53.1596,39.5996,107.5763,252.5361,0,U,46036,999,32363,.5833E-6,-.342E-5,0
STARLINK-1569,2020-055N,2026-06-13T23:12:20.642112,15.30182037,.0001224,53.1619,39.5073,93.5019,266.6122,0,U,46039,999,32362,-.53655E-4,-.1947E-4,0
STARLINK-1582,2020-055S,2026-06-13T21:54:30.187296,15.31692274,.0002,53.1635,39.0907,123.6490,236.4702,0,U,46043,999,32362,.3032E-4,.575E-5,0
STARLINK-1591,2020-055U,2026-06-13T22:25:19.116192,15.30190691,.0000883,53.1595,39.6591,98.0388,262.0713,0,U,46045,999,32360,.64241E-4,.1544E-4,0
STARLINK-1524,2020-055W,2026-06-13T21:10:19.387776,15.31689934,.00012507,53.1623,26.5356,99.3562,260.7581,0,U,46047,999,32380,-.77644454E-4,-.2773E-4,0
STARLINK-1527,2020-055X,2026-06-13T21:03:37.796256,15.31685809,.00010287,53.1608,26.5396,74.6251,285.4864,0,U,46048,999,32377,-.59848899E-4,-.2221E-4,0
STARLINK-1540,2020-055AA,2026-06-13T22:17:29.083776,15.31700281,.0001261,53.1595,26.5098,88.6940,271.4206,0,U,46051,999,32382,.63123E-4,.1594E-4,0
STARLINK-1541,2020-055AB,2026-06-14T06:00:02.000160,15.86697765,.0005666,53.1566,6.3519,266.7256,104.0222,0,U,46052,999,600,.74739E-3,.198393E-2,0
STARLINK-1543,2020-055AC,2026-06-13T21:37:10.632000,15.31706386,.0001653,53.1601,26.4442,75.1972,284.9213,0,U,46053,999,32381,.13043E-3,.3685E-4,0
STARLINK-1548,2020-055AD,2026-06-13T21:57:19.609920,15.31698794,.000088,53.1590,26.4527,67.2084,292.9010,0,U,46054,999,32381,.44139E-4,.1005E-4,0
STARLINK-1554,2020-055AE,2026-06-13T21:30:27.599328,15.31698397,.00011756,53.1602,26.4875,86.7422,273.3714,0,U,46055,999,32381,-.16922224E-3,-.5612E-4,0
STARLINK-1564,2020-055AH,2026-06-13T21:23:56.047488,15.30185681,.00014353,53.1631,27.5237,96.3482,263.7682,0,U,46058,999,32379,.10616178E-4,-.45E-6,0
STARLINK-1570,2020-055AJ,2026-06-13T22:10:43.580064,15.31693171,.0001145,53.1618,26.2378,124.5697,235.5412,0,U,46059,999,32377,-.47416E-4,-.1836E-4,0
STARLINK-1572,2020-055AK,2026-06-13T22:30:38.183616,15.30170604,.0001627,53.1625,27.0457,112.3535,247.7639,0,U,46060,999,32377,.92883E-5,-.84E-6,0
STARLINK-1573,2020-055AL,2026-06-13T20:16:37.717536,15.31688713,.00007425,53.1607,26.5710,87.6187,272.4899,0,U,46061,999,32380,-.10645789E-4,-.695E-5,0
STARLINK-1577,2020-055AN,2026-06-13T22:30:51.122880,15.31686274,.0001374,53.1613,26.1373,78.0356,282.0800,0,U,46063,999,32381,-.50642E-4,-.1936E-4,0
STARLINK-1583,2020-055AP,2026-06-13T21:17:06.971136,15.31702802,.00011529,53.1615,26.8759,87.1459,272.9675,0,U,46064,999,32379,.7367581E-4,.1922E-4,0
STARLINK-1536,2020-055AV,2026-06-13T19:44:59.974368,15.31717670,.00014257,53.1586,14.5628,136.7109,223.4004,0,U,46070,999,32396,.23269007E-3,.6866E-4,0
STARLINK-1542,2020-055AY,2026-06-13T21:54:04.078080,15.31695592,.0001101,53.1601,17.1119,86.4313,273.6815,0,U,46073,999,32392,-.23328E-4,-.1089E-4,0
STARLINK-1549,2020-055AZ,2026-06-13T21:07:48.554976,15.29830471,.00024894,53.0496,14.4406,143.0272,217.0899,0,U,46074,999,32394,.12173221E-2,.35461E-3,0
